{"epoch":1784799577,"count":18318,"objects":[{"id":"31797","name":"SAR LUPE 2","type":"PAYLOAD","l1":"1 31797U 07030A   26203.92377110  .00021436  00000-0  32023-3 0  9999","l2":"2 31797  98.1058 312.9350 0005684 225.8039 134.2747 15.55053819 62485"},{"id":"39088","name":"SAPPHIRE","type":"PAYLOAD","l1":"1 39088U 13009C   26203.92552933  .00000085  00000-0  44577-4 0  9996","l2":"2 39088  98.4281  22.5360 0012013 138.1885 222.0221 14.35249116701703"},{"id":"65565","name":"PRAETORIAN SDA_602","type":"PAYLOAD","l1":"1 65565U 25203A   26203.30371272  .00000087  00000-0  67419-4 0  9993","l2":"2 65565  81.3052 338.2568 0007145 101.4653 258.7307 13.83888829 43557"},{"id":"65566","name":"PRAETORIAN SDA_603","type":"PAYLOAD","l1":"1 65566U 25203B   26203.33162045  .00000088  00000-0  68112-4 0  9995","l2":"2 65566  81.3057 338.1523 0010806  97.4826 262.7559 13.83962192 43568"},{"id":"65567","name":"PRAETORIAN SDA_604","type":"PAYLOAD","l1":"1 65567U 25203C   26202.79513893  .00000110  00000-0  89897-4 0  9995","l2":"2 65567  81.3074 339.1150 0006672 106.6224 253.5665 13.83051108 43467"},{"id":"65568","name":"PRAETORIAN SDA_605","type":"PAYLOAD","l1":"1 65568U 25203D   26203.33279559  .00000113  00000-0  91747-4 0  9995","l2":"2 65568  81.3039 338.2547 0009374  96.3009 263.9215 13.83201247 43554"},{"id":"65569","name":"PRAETORIAN SDA_606","type":"PAYLOAD","l1":"1 65569U 25203E   26203.31797137  .00000065  00000-0  48379-4 0  9990","l2":"2 65569  81.3075 338.5093 0007227  99.9263 260.2710 13.83200571 43548"},{"id":"65570","name":"PRAETORIAN SDA_607","type":"PAYLOAD","l1":"1 65570U 25203F   26203.30545662  .00000156  00000-0  12998-3 0  9993","l2":"2 65570  81.3060 338.1336 0010034  97.5750 262.6547 13.83759652 43560"},{"id":"65571","name":"PRAETORIAN SDA_608","type":"PAYLOAD","l1":"1 65571U 25203G   26203.79378893  .00000106  00000-0  85021-4 0  9990","l2":"2 65571  81.3028 337.8422 0007142 102.9033 257.2922 13.83820599 43610"},{"id":"65572","name":"PRAETORIAN SDA_609","type":"PAYLOAD","l1":"1 65572U 25203H   26203.78861788  .00000154  00000-0  12710-3 0  9997","l2":"2 65572  81.3070 337.8237 0008025  97.5432 262.6636 13.84212453 43623"},{"id":"65573","name":"PRAETORIAN SDA_610","type":"PAYLOAD","l1":"1 65573U 25203J   26203.34337495  .00000107  00000-0  86424-4 0  9995","l2":"2 65573  81.3030 338.2255 0007888 103.1751 257.0285 13.83529321 43553"},{"id":"65574","name":"PRAETORIAN SDA_611","type":"PAYLOAD","l1":"1 65574U 25203K   26203.78738825  .00000016  00000-0  37926-5 0  9999","l2":"2 65574  81.3030 338.0000 0006811 106.5971 253.5934 13.83311293 43601"},{"id":"65575","name":"PRAETORIAN SDA_612","type":"PAYLOAD","l1":"1 65575U 25203L   26203.80481511  .00000173  00000-0  14237-3 0  9992","l2":"2 65575  81.3052 337.4827 0010411  96.5020 263.7323 13.85042111 43641"},{"id":"65576","name":"PRAETORIAN SDA_613","type":"PAYLOAD","l1":"1 65576U 25203M   26203.80811635  .00000086  00000-0  68153-4 0  9997","l2":"2 65576  81.3021 338.0053 0006818  97.9277 262.2653 13.82768664 43602"},{"id":"65577","name":"PRAETORIAN SDA_614","type":"PAYLOAD","l1":"1 65577U 25203N   26203.65621734  .00000063  00000-0  45558-4 0  9999","l2":"2 65577  81.3036 337.7070 0008271  95.8403 264.3697 13.84779208 43628"},{"id":"65578","name":"PRAETORIAN SDA_615","type":"PAYLOAD","l1":"1 65578U 25203P   26203.78637035  .00000096  00000-0  75229-4 0  9999","l2":"2 65578  81.3044 337.5726 0010207  95.4925 264.7396 13.84439058 43638"},{"id":"65579","name":"PRAETORIAN SDA_616","type":"PAYLOAD","l1":"1 65579U 25203Q   26203.78766026  .00000134  00000-0  11150-3 0  9998","l2":"2 65579  81.3085 338.1684 0006681 104.9606 255.2290 13.83270763 43607"},{"id":"65580","name":"PRAETORIAN SDA_617","type":"PAYLOAD","l1":"1 65580U 25203R   26203.66762432  .00000059  00000-0  42570-4 0  9991","l2":"2 65580  81.3059 338.1074 0008542  96.0943 264.1187 13.83152799 43596"},{"id":"65581","name":"PRAETORIAN SDA_618","type":"PAYLOAD","l1":"1 65581U 25203S   26203.61031870  .00000176  00000-0  14741-3 0  9990","l2":"2 65581  81.3044 337.6702 0010927  98.8356 261.4038 13.84226576 43615"},{"id":"65582","name":"PRAETORIAN SDA_619","type":"PAYLOAD","l1":"1 65582U 25203T   26203.29845513  .00000193  00000-0  16354-3 0  9993","l2":"2 65582  81.3066 338.2938 0009359  97.5668 262.6552 13.83807332 44188"},{"id":"65583","name":"PRAETORIAN SDA_620","type":"PAYLOAD","l1":"1 65583U 25203U   26203.77063501  .00000060  00000-0  43720-4 0  9997","l2":"2 65583  81.3052 337.8945 0008670  94.0685 266.1462 13.83208277 43612"},{"id":"65584","name":"PRAETORIAN SDA_621","type":"PAYLOAD","l1":"1 65584U 25203V   26203.66182157  .00000090  00000-0  70637-4 0  9995","l2":"2 65584  81.3042 337.8878 0008514  91.4224 268.7908 13.83804828 43600"},{"id":"65585","name":"PRAETORIAN SDA_601","type":"PAYLOAD","l1":"1 65585U 25203X   26203.79336749  .00000007  00000-0 -45613-5 0  9994","l2":"2 65585  81.3059 338.1033 0006763 107.6415 252.5480 13.83171200 43609"},{"id":"69646","name":"VICTUS HAZE PUMA","type":"PAYLOAD","l1":"1 69646U 26142A   26204.27102410  .00004214  00000-0  19059-3 0  9995","l2":"2 69646  97.4452 101.4820 0026594 237.1743 122.6931 15.21162456  5151"}]}